{"type": "FeatureCollection", "features": [ {"type": "Feature", "properties": {"norad_id": 34635, "name": "COSMOS 2251 DEB", "group": "cosmos-2251-debris", "lat": -18.622785266355766, "lon": -121.54353823506015, "alt_km": 667.7959259971258, "timestamp": "2025-12-21T22:41:41.853849+00:00", "meta": {"OBJECT_NAME": "COSMOS 2251 DEB", "OBJECT_ID": "1993-036XG", "EPOCH": "2025-12-21T14:10:13.971072", "MEAN_MOTION": 14.68365938, "ECCENTRICITY": 0.00278703, "INCLINATION": 74.0452, "RA_OF_ASC_NODE": 53.6105, "ARG_OF_PERICENTER": 119.3007, "MEAN_ANOMALY": 2.9022, "EPHEMERIS_TYPE": 0, "CLASSIFICATION_TYPE": "U", "NORAD_CAT_ID": 34635, "ELEMENT_SET_NO": 999, "REV_AT_EPOCH": 73349, "BSTAR": 0.000770398, "MEAN_MOTION_DOT": 4.45e-05, "MEAN_MOTION_DDOT": 0}, "tle": {"line1": "1 34635U 93036XG  25355.59043948  .00004450  00000+0  77040-3 0  9997", "line2": "2 34635  74.0452  53.6105 0027870 119.3007   2.9022 14.68365938733494"}}, "geometry": {"type": "Point", "coordinates": [-121.54353823506015, -18.622785266355766]}}, {"type": "Feature", "properties": {"norad_id": 34637, "name": "COSMOS 2251 DEB", "group": "cosmos-2251-debris", "lat": 58.403771376396364, "lon": -124.10604156417115, "alt_km": 657.8244434705348, "timestamp": "2025-12-21T22:41:41.853859+00:00", "meta": {"OBJECT_NAME": "COSMOS 2251 DEB", "OBJECT_ID": "1993-036XJ", "EPOCH": "2025-12-20T17:15:15.768864", "MEAN_MOTION": 14.60159764, "ECCENTRICITY": 0.00491538, "INCLINATION": 74.0498, "RA_OF_ASC_NODE": 85.9391, "ARG_OF_PERICENTER": 154.3683, "MEAN_ANOMALY": 357.9814, "EPHEMERIS_TYPE": 0, "CLASSIFICATION_TYPE": "U", "NORAD_CAT_ID": 34637, "ELEMENT_SET_NO": 999, "REV_AT_EPOCH": 88643, "BSTAR": 0.00053669704, "MEAN_MOTION_DOT": 2.599e-05, "MEAN_MOTION_DDOT": 0}, "tle": {"line1": "1 34637U 93036XJ  25354.71893251  .00002599  00000+0  53670-3 0  9997", "line2": "2 34637  74.0498  85.9391 0049153 154.3683 357.9814 14.60159764886433"}}, "geometry": {"type": "Point", "coordinates": [-124.10604156417115, 58.403771376396364]}}, {"type": "Feature", "properties": {"norad_id": 34641, "name": "COSMOS 2251 DEB", "group": "cosmos-2251-debris", "lat": -19.934406216277324, "lon": -109.86756971102265, "alt_km": 733.4214710003143, "timestamp": "2025-12-21T22:41:41.853869+00:00", "meta": {"OBJECT_NAME": "COSMOS 2251 DEB", "OBJECT_ID": "1993-036XN", "EPOCH": "2025-12-20T23:26:26.881728", "MEAN_MOTION": 14.5205609, "ECCENTRICITY": 0.0019002, "INCLINATION": 73.8395, "RA_OF_ASC_NODE": 65.9424, "ARG_OF_PERICENTER": 338.6846, "MEAN_ANOMALY": 199.2254, "EPHEMERIS_TYPE": 0, "CLASSIFICATION_TYPE": "U", "NORAD_CAT_ID": 34641, "ELEMENT_SET_NO": 999, "REV_AT_EPOCH": 88375, "BSTAR": 0.00055797, "MEAN_MOTION_DOT": 2.233e-05, "MEAN_MOTION_DDOT": 0}, "tle": {"line1": "1 34641U 93036XN  25354.97670002  .00002233  00000+0  55797-3 0  9994", "line2": "2 34641  73.8395  65.9424 0019002 338.6846 199.2254 14.52056090883750"}}, "geometry": {"type": "Point", "coordinates": [-109.86756971102265, -19.934406216277324]}}, {"type": "Feature", "properties": {"norad_id": 34642, "name": "COSMOS 2251 DEB", "group": "cosmos-2251-debris", "lat": -30.763911542696114, "lon": -45.974938452436234, "alt_km": 1052.2997491601527, "timestamp": "2025-12-21T22:41:41.853879+00:00", "meta": {"OBJECT_NAME": "COSMOS 2251 DEB", "OBJECT_ID": "1993-036XP", "EPOCH": "2025-12-19T16:47:36.276288", "MEAN_MOTION": 13.98991151, "ECCENTRICITY": 0.02066861, "INCLINATION": 74.0042, "RA_OF_ASC_NODE": 327.7452, "ARG_OF_PERICENTER": 145.9553, "MEAN_ANOMALY": 35.4618, "EPHEMERIS_TYPE": 0, "CLASSIFICATION_TYPE": "U", "NORAD_CAT_ID": 34642, "ELEMENT_SET_NO": 999, "REV_AT_EPOCH": 85390, "BSTAR": 0.00059559157, "MEAN_MOTION_DOT": 1.011e-05, "MEAN_MOTION_DDOT": 0}, "tle": {"line1": "1 34642U 93036XP  25353.69972542  .00001011  00000+0  59559-3 0  9990", "line2": "2 34642  74.0042 327.7452 0206686 145.9553  35.4618 13.98991151853907"}}, "geometry": {"type": "Point", "coordinates": [-45.974938452436234, -30.763911542696114]}}, {"type": "Feature", "properties": {"norad_id": 34671, "name": "COSMOS 2251 DEB", "group": "cosmos-2251-debris", "lat": 71.39532162177058, "lon": 174.82826389433163, "alt_km": 666.6467108288516, "timestamp": "2025-12-21T22:41:41.853889+00:00", "meta": {"OBJECT_NAME": "COSMOS 2251 DEB", "OBJECT_ID": "1993-036XR", "EPOCH": "2025-12-21T09:29:47.607360", "MEAN_MOTION": 14.67068884, "ECCENTRICITY": 0.00108292, "INCLINATION": 74.0271, "RA_OF_ASC_NODE": 117.5841, "ARG_OF_PERICENTER": 198.6803, "MEAN_ANOMALY": 218.5476, "EPHEMERIS_TYPE": 0, "CLASSIFICATION_TYPE": "U", "NORAD_CAT_ID": 34671, "ELEMENT_SET_NO": 999, "REV_AT_EPOCH": 88424, "BSTAR": 0.0011874226, "MEAN_MOTION_DOT": 6.646e-05, "MEAN_MOTION_DDOT": 0}, "tle": {"line1": "1 34671U 93036XR  25355.39568990  .00006646  00000+0  11874-2 0  9995", "line2": "2 34671  74.0271 117.5841 0010829 198.6803 218.5476 14.67068884884247"}}, "geometry": {"type": "Point", "coordinates": [174.82826389433163, 71.39532162177058]}}, {"type": "Feature", "properties": {"norad_id": 34672, "name": "COSMOS 2251 DEB", "group": "cosmos-2251-debris", "lat": -32.042582833910124, "lon": -81.64532319004805, "alt_km": 761.427843174286, "timestamp": "2025-12-21T22:41:41.853899+00:00", "meta": {"OBJECT_NAME": "COSMOS 2251 DEB", "OBJECT_ID": "1993-036XS", "EPOCH": "2025-12-18T13:28:46.255872", "MEAN_MOTION": 14.36417673, "ECCENTRICITY": 0.00241418, "INCLINATION": 74.0338, "RA_OF_ASC_NODE": 294.8922, "ARG_OF_PERICENTER": 5.7391, "MEAN_ANOMALY": 109.133, "EPHEMERIS_TYPE": 0, "CLASSIFICATION_TYPE": "U", "NORAD_CAT_ID": 34672, "ELEMENT_SET_NO": 999, "REV_AT_EPOCH": 65261, "BSTAR": 0.00020838077, "MEAN_MOTION_DOT": 5.86e-06, "MEAN_MOTION_DDOT": 0}, "tle": {"line1": "1 34672U 93036XS  25352.56164648  .00000586  00000+0  20838-3 0  9992", "line2": "2 34672  74.0338 294.8922 0024141   5.7391 109.1330 14.36417673652611"}}, "geometry": {"type": "Point", "coordinates": [-81.64532319004805, -32.042582833910124]}}, {"type": "Feature", "properties": {"norad_id": 34678, "name": "COSMOS 2251 DEB", "group": "cosmos-2251-debris", "lat": -57.153877934190575, "lon": -37.36075447385882, "alt_km": 800.074887354016, "timestamp": "2025-12-21T22:41:41.853909+00:00", "meta": {"OBJECT_NAME": "COSMOS 2251 DEB", "OBJECT_ID": "1993-036XY", "EPOCH": "2025-12-20T18:41:52.747872", "MEAN_MOTION": 14.30066309, "ECCENTRICITY": 0.00246589, "INCLINATION": 74.0376, "RA_OF_ASC_NODE": 351.0764, "ARG_OF_PERICENTER": 37.6613, "MEAN_ANOMALY": 18.542, "EPHEMERIS_TYPE": 0, "CLASSIFICATION_TYPE": "U", "NORAD_CAT_ID": 34678, "ELEMENT_SET_NO": 999, "REV_AT_EPOCH": 87494, "BSTAR": 2.2824328e-05, "MEAN_MOTION_DOT": 3.3e-07, "MEAN_MOTION_DDOT": 0}, "tle": {"line1": "1 34678U 93036XY  25354.77908273  .00000033  00000+0  22824-4 0  9998", "line2": "2 34678  74.0376 351.0764 0024658  37.6613  18.5420 14.30066309874948"}}, "geometry": {"type": "Point", "coordinates": [-37.36075447385882, -57.153877934190575]}}, {"type": "Feature", "properties": {"norad_id": 34680, "name": "COSMOS 2251 DEB", "group": "cosmos-2251-debris", "lat": 24.156531351103446, "lon": -75.09224685041129, "alt_km": 687.5465289158628, "timestamp": "2025-12-21T22:41:41.853918+00:00", "meta": {"OBJECT_NAME": "COSMOS 2251 DEB", "OBJECT_ID": "1993-036YA", "EPOCH": "2025-12-21T09:05:49.850016", "MEAN_MOTION": 14.60705387, "ECCENTRICITY": 0.00064474, "INCLINATION": 74.0436, "RA_OF_ASC_NODE": 113.3618, "ARG_OF_PERICENTER": 214.2531, "MEAN_ANOMALY": 202.3864, "EPHEMERIS_TYPE": 0, "CLASSIFICATION_TYPE": "U", "NORAD_CAT_ID": 34680, "ELEMENT_SET_NO": 999, "REV_AT_EPOCH": 88454, "BSTAR": 0.00081450462, "MEAN_MOTION_DOT": 3.943e-05, "MEAN_MOTION_DDOT": 0}, "tle": {"line1": "1 34680U 93036YA  25355.37904919  .00003943  00000+0  81450-3 0  9993", "line2": "2 34680  74.0436 113.3618 0006447 214.2531 202.3864 14.60705387884544"}}, "geometry": {"type": "Point", "coordinates": [-75.09224685041129, 24.156531351103446]}}, {"type": "Feature", "properties": {"norad_id": 34681, "name": "COSMOS 2251 DEB", "group": "cosmos-2251-debris", "lat": 50.52649028566152, "lon": -67.49993336083102, "alt_km": 612.3187793720399, "timestamp": "2025-12-21T22:41:41.853928+00:00", "meta": {"OBJECT_NAME": "COSMOS 2251 DEB", "OBJECT_ID": "1993-036YB", "EPOCH": "2025-12-20T05:03:03.083904", "MEAN_MOTION": 14.8337722, "ECCENTRICITY": 0.00256787, "INCLINATION": 74.0634, "RA_OF_ASC_NODE": 275.6275, "ARG_OF_PERICENTER": 331.3833, "MEAN_ANOMALY": 179.5165, "EPHEMERIS_TYPE": 0, "CLASSIFICATION_TYPE": "U", "NORAD_CAT_ID": 34681, "ELEMENT_SET_NO": 999, "REV_AT_EPOCH": 89381, "BSTAR": 0.00092860454, "MEAN_MOTION_DOT": 7.634e-05, "MEAN_MOTION_DDOT": 0}, "tle": {"line1": "1 34681U 93036YB  25354.21045236  .00007634  00000+0  92860-3 0  9992", "line2": "2 34681  74.0634 275.6275 0025678 331.3833 179.5165 14.83377220893814"}}, "geometry": {"type": "Point", "coordinates": [-67.49993336083102, 50.52649028566152]}}, {"type": "Feature", "properties": {"norad_id": 34682, "name": "COSMOS 2251 DEB", "group": "cosmos-2251-debris", "lat": 70.86650975160462, "lon": 121.03380867234806, "alt_km": 695.3329635238315, "timestamp": "2025-12-21T22:41:41.853938+00:00", "meta": {"OBJECT_NAME": "COSMOS 2251 DEB", "OBJECT_ID": "1993-036YC", "EPOCH": "2025-12-21T14:19:59.259360", "MEAN_MOTION": 14.58950763, "ECCENTRICITY": 0.00178951, "INCLINATION": 74.0396, "RA_OF_ASC_NODE": 66.119, "ARG_OF_PERICENTER": 198.3509, "MEAN_ANOMALY": 211.9973, "EPHEMERIS_TYPE": 0, "CLASSIFICATION_TYPE": "U", "NORAD_CAT_ID": 34682, "ELEMENT_SET_NO": 999, "REV_AT_EPOCH": 88815, "BSTAR": 0.00053507245, "MEAN_MOTION_DOT": 2.486e-05, "MEAN_MOTION_DDOT": 0}, "tle": {"line1": "1 34682U 93036YC  25355.59721365  .00002486  00000+0  53507-3 0  9994", "line2": "2 34682  74.0396  66.1190 0017895 198.3509 211.9973 14.58950763888152"}}, "geometry": {"type": "Point", "coordinates": [121.03380867234806, 70.86650975160462]}}]}